STARLINK-31213          
1 58860U 24019H   26068.56317980  .00000352  00000+0  22325-4 0  9991
2 58860  43.0024 249.5899 0001359 272.2710  87.7986 15.27576365119066
BANDWAGON-4 OBJECT M    
1 66304U 25248M   26068.03503276  .00023645  00000+0  95704-3 0  9995
2 66304  45.4108 294.9904 0012944 207.5285 152.4918 15.24295413 18037
